INTELSAT 21 (IS-21)     
1 38749U 12045A   26158.47665573 -.00000270  00000+0  00000+0 0  9996
2 38749   0.0440  87.0336 0002035 357.2644 285.1954  1.00272497 50426
INTELSAT 23 (IS-23)     
1 38867U 12057A   26158.47769574 -.00000270  00000+0  00000+0 0  9996
2 38867   0.0099 325.2350 0000574 125.6160 283.9972  1.00275751 49853
FM-6                    
1 39360U 13058A   26158.46512902  .00000000  00000+0  00000+0 0  9997
2 39360   0.0094  45.4890 0001559  95.5877 165.8953  1.00260608 45972
INTELSAT 30 (IS-30)     
1 40271U 14062A   26158.39802178 -.00000136  00000+0  00000+0 0  9996
2 40271   0.0230  43.2509 0000963 357.4539 263.3014  1.00269215  6694
DIRECTV 14              
1 40333U 14078B   26158.46850904 -.00000111  00000+0  00000+0 0  9993
2 40333   0.0091 350.5925 0000490 189.7583 144.9453  1.00270234 41945
DIRECTV 15              
1 40663U 15026A   26158.46988699 -.00000088  00000+0  00000+0 0  9999
2 40663   0.0180   0.9006 0000430 228.5203  92.7414  1.00271546 40360
SKY MEXICO-1            
1 40664U 15026B   26158.47258237 -.00000220  00000+0  00000+0 0  9997
2 40664   0.0165  50.9407 0002253  43.1810 253.0904  1.00271781 40350
INTELSAT 34 (IS-34)     
1 40874U 15039A   26158.40590850 -.00000271  00000+0  00000+0 0  9993
2 40874   0.0095 328.3009 0000354  36.4234 341.7313  1.00273003 39536
INTELSAT 31 (IS-31)     
1 41581U 16035A   26158.39810845 -.00000137  00000+0  00000+0 0  9994
2 41581   0.0186 259.0986 0000826 334.9690  70.0155  1.00271889 36581
INTELSAT 36 (IS-36)     
1 41747U 16053A   26158.43049740 -.00000010  00000+0  00000+0 0  9991
2 41747   0.0098 351.2411 0001878 348.9810 139.0910  1.00270281 35862
INTELSAT 32E (IS-32E)   
1 41945U 17007B   26158.47960242 -.00000255  00000+0  00000+0 0  9995
2 41945   0.0013 358.2728 0000960 340.2847  46.8100  1.00266354 34123
INTELSAT 35E (IS-35E)   
1 42818U 17041A   26158.48133575 -.00000223  00000+0  00000+0 0  9990
2 42818   0.0189  58.8815 0001861  17.4504 318.3585  1.00272918 32711
INTELSAT 37E (IS-37E)   
1 42950U 17059A   26158.41336185  .00000000  00000+0  00000+0 0  9993
2 42950   0.0175 342.0934 0002512 121.8356 282.7063  1.00270811 31963
AZERSPACE 2 (IS-38)     
1 43632U 18074A   26158.21193667  .00000151  00000+0  00000+0 0  9990
2 43632   0.0177 314.7574 0001539 118.2090 304.0654  1.00271229 28348
HORIZONS-3E             
1 43633U 18074B   26158.45739162 -.00000018  00000+0  00000+0 0  9996
2 43633   0.0039 234.7712 0000924  10.5113 344.2332  1.00263363 28246
AT&T T-16               
1 44333U 19034A   26158.39689512 -.00000101  00000+0  00000+0 0  9990
2 44333   0.0211  62.8087 0000497 205.3448  29.6836  1.00271029 25531
INTELSAT 39 (IS-39)     
1 44476U 19049B   26158.42919740  .00000048  00000+0  00000+0 0  9996
2 44476   0.0173 311.3729 0000784  10.2839 150.6478  1.00270553 25030
GALAXY 30 (G-30)        
1 46114U 20056C   26158.46339566  .00000051  00000+0  00000+0 0  9997
2 46114   0.0182 352.6044 0002266  81.7758 223.3024  1.00272703 21196
GALAXY 33 (G-33)        
1 54026U 22128A   26158.39056843  .00000093  00000+0  00000+0 0  9992
2 54026   0.0251  55.8720 0001889  20.5264 187.0177  1.00272350 13644
GALAXY 34 (G-34)        
1 54027U 22128B   26158.39975279  .00000073  00000+0  00000+0 0  9994
2 54027   0.0095 329.9229 0001844 117.4355 183.3648  1.00273637 13818
GALAXY 31 (G-31)        
1 54243U 22153A   26158.39290844  .00000027  00000+0  00000+0 0  9999
2 54243   0.0304 100.4776 0001361 336.9676 198.8043  1.00272326  7039
GALAXY 32 (G-32)        
1 54244U 22153B   26158.39888845 -.00000160  00000+0  00000+0 0  9993
2 54244   0.0092 330.2526 0002183  67.4307 270.7267  1.00270309 13045
GALAXY 35 (G-35)        
1 54741U 22170A   26158.39845513 -.00000148  00000+0  00000+0 0  9995
2 54741   0.0203  76.7365 0002147   3.0231 226.3957  1.00271767 12799
GALAXY 36 (G-36)        
1 54742U 22170B   26158.39923513 -.00000171  00000+0  00000+0 0  9999
2 54742   0.0055 293.8700 0002746 148.2706 228.3973  1.00271472 12674
GALAXY 37 (G-37)        
1 57493U 23112A   26158.39975279  .00000062  00000+0  00000+0 0  9996
2 57493   0.0169 330.3141 0002031 106.3827 196.0244  1.00271574 10446
